satname,norad_id,inclination_deg,eccentricity,mean_motion_rev_per_day,perigee_km,apogee_km,l1,l2
STARLINK-1540,46051,53.1628,0.0001753,15.30178818,474.0769120779669,476.4797194876801,1 46051U 20055AA  26103.56203834  .00001572  00000+0  65241-4 0  9997,2 46051  53.1628 311.8626 0001753 110.1219 249.9971 15.30178818314428
STARLINK-1541,46052,53.1594,9.23e-05,15.42763495,437.3284114471862,438.5866624987111,1 46052U 20055AB  26104.00002315  .01777156  00000+0  36083-1 0  9997,2 46052  53.1594 309.4643 0000923 110.7502  49.8303 15.42763495  5834
STARLINK-1543,46053,53.1606,0.0001431,15.30187546,474.2715350682802,476.23297507308143,1 46053U 20055AC  26103.29656097  .00001328  00000+0  56984-4 0  9995,2 46053  53.1606 313.1641 0001431  92.1739 267.9426 15.30187546314374
STARLINK-1548,46054,53.1599,0.0001288,15.30187492,474.36969975031843,476.13513286395937,1 46054U 20055AD  26103.30393613 -.00000043  00000+0  10668-4 0  9993,2 46054  53.1599 313.1341 0001288  86.1887 273.9261 15.30187492314374
STARLINK-1554,46055,53.1596,0.0001556,15.31679655,469.7349485859904,471.8663379805803,1 46055U 20055AE  26104.00002315  .00051886  00000+0  16732-2 0  9994,2 46055  53.1596 309.9974 0001556  69.3632 194.1629 15.31679655  5687
STARLINK-1564,46058,53.1595,0.0001044,15.30178513,474.56372982496487,475.9947231330534,1 46058U 20055AH  26103.88764189 -.00001815  00000+0 -49206-4 0  9999,2 46058  53.1595 310.8775 0001044  94.2192 265.8928 15.30178513314451
STARLINK-1570,46059,53.1596,0.0001273,15.31677181,469.93614762090783,471.67988902257275,1 46059U 20055AJ  26104.00002315  .00057654  00000+0  18567-2 0  9995,2 46059  53.1596 309.8791 0001273  72.3575  36.9461 15.31677181  5840
STARLINK-1572,46060,53.1596,0.0001549,15.30208217,474.12895461305834,476.25211548341576,1 46060U 20055AK  26103.86863724  .00006842  00000+0  24285-3 0  9997,2 46060  53.1596 310.7144 0001549  94.7392 265.3786 15.30208217314420
STARLINK-1573,46061,53.1604,0.0001685,15.30822838,472.2015414062935,474.51049455335306,1 46061U 20055AL  26103.96608167  .00124197  00000+0  40569-2 0  9993,2 46061  53.1604 310.0030 0001685 100.5527 259.5664 15.30822838314471
STARLINK-1577,46063,53.1611,0.0001048,15.30195576,474.51004603650654,475.9465113989254,1 46063U 20055AN  26103.92757162 -.00000042  00000+0  10689-4 0  9996,2 46063  53.1611 310.1565 0001048  90.7738 269.3383 15.30195576314460
STARLINK-1583,46064,53.1603,0.0001167,15.30200398,474.4140950155024,476.01366711114224,1 46064U 20055AP  26103.89807181  .00005700  00000+0  20442-3 0  9992,2 46064  53.1603 310.3262 0001167 105.8648 254.2482 15.30200398314459
STARLINK-1536,46070,53.1095,0.0001414,15.21963835,498.9450491637499,500.89016300635103,1 46070U 20055AV  26104.00002315  .00081940  00000+0  35218-2 0  9995,2 46070  53.1095 297.3041 0001414  98.7941  79.4390 15.21963835  5770
STARLINK-1542,46073,53.0555,0.0001457,15.06393302,546.2230601437623,548.2411126955449,1 46073U 20055AY  26103.84024749 -.00000037  00000+0  16435-4 0  9995,2 46073  53.0555 298.8208 0001457  95.2546 264.8610 15.06393302314603
STARLINK-1549,46074,53.0522,6.67e-05,15.25437802,489.01304354353215,489.92918246580666,1 46074U 20055AZ  26103.83728314  .00018333  00000+0  72723-3 0  9992,2 46074  53.0522 297.5597 0000667  10.0933 350.0078 15.25437802314614
STARLINK-1551,46075,53.1562,0.0001074,15.29337444,477.0553898074231,478.5280432957388,1 46075U 20055BA  26104.00002315  .00051376  00000+0  17814-2 0  9992,2 46075  53.1562 296.9682 0001074  85.5883 268.4054 15.29337444  5722
STARLINK-1552,46076,53.1549,7.43e-05,15.29338509,477.2791383985441,478.29792893284775,1 46076U 20055BB  26104.00002315  .00054116  00000+0  18751-2 0  9999,2 46076  53.1549 296.9472 0000743 104.9372 121.2368 15.29338509  5767
STARLINK-1559,46077,53.0238,0.0001841,15.33344474,464.58230888202615,467.10226205493655,1 46077U 20055BC  26103.80207751  .00036412  00000+0  11201-2 0  9990,2 46077  53.0238 270.0404 0001841 183.2753 176.8235 15.33344474314960
STARLINK-1566,46079,53.1543,0.0001221,15.29331177,476.973335157616,478.6475575240129,1 46079U 20055BE  26104.00002315  .00052787  00000+0  18301-2 0  9995,2 46079  53.1543 296.9216 0001221 102.1110  38.0790 15.29331177  5568
STARLINK-1568,46080,53.0598,0.0004359,15.49374791,415.5911929671338,421.51654806805254,1 46080U 20055BF  26103.55283455  .00026798  00000+0  48696-3 0  9996,2 46080  53.0598 226.2453 0004359 258.9769 101.0748 15.49374791315595
STARLINK-1578,46082,53.1172,0.0001809,15.23805019,493.1328389717755,495.6193142028842,1 46082U 20055BH  26104.00002315  .00082443  00000+0  33555-2 0  9999,2 46082  53.1172 297.2321 0001809 115.2748 120.8756 15.23805019  5775
STARLINK-1579,46083,53.1545,0.0001254,15.29317591,476.99130950332983,478.710791306371,1 46083U 20055BJ  26104.00002315  .00054751  00000+0  18980-2 0  9996,2 46083  53.1545 297.0073 0001254 105.8373  67.1252 15.29317591  5767
STARLINK-1593,46119,53.0358,0.000527,15.9130908,295.099971285581,302.13727171063965,1 46119U 20057C   26104.00002315  .00293026  43139-4  90260-3 0  9995,2 46119  53.0358  92.6535 0005270  66.4241   4.4107 15.91309080  5988
STARLINK-1621,46127,53.0363,0.000454,15.97678354,277.8386738692425,283.88504483353245,1 46127U 20057L   26104.00002315  .00324361  54029-4  70988-3 0  9996,2 46127  53.0363  64.9140 0004540  80.7103  94.2182 15.97678354  5992
STARLINK-1622,46128,53.0205,0.0001635,15.70950682,355.07766965012524,357.27979089392466,1 46128U 20057M   26103.57341051  .00069274  00000+0  54305-3 0  9990,2 46128  53.0205  52.2500 0001635  28.4095 331.7011 15.70950682312831
STARLINK-1623,46129,53.0448,0.000312,15.6046669,384.19753908975053,388.41855279842,1 46129U 20057N   26103.24905474  .00092011  00000+0  10915-2 0  9993,2 46129  53.0448  88.5456 0003120   6.6257 353.4796 15.60466690312305
STARLINK-1624,46130,53.0375,0.0008037,15.80383376,323.9648495436877,334.74647324761463,1 46130U 20057P   26104.00002315  .00057437  00000+0  29863-3 0  9998,2 46130  53.0375  56.7754 0008037  93.6446  88.7071 15.80383376  5968
STARLINK-1596,46141,53.0387,0.0002134,15.50810661,412.90840849441065,415.80744532921653,1 46141U 20057AA  26103.87737575  .00060973  00000+0  10391-2 0  9991,2 46141  53.0387  62.5031 0002134  85.5156 274.6096 15.50810661312723
STARLINK-1597,46142,53.0457,0.0005129,15.64557041,371.0495694250194,377.9764377987249,1 46142U 20057AB  26103.24264299  .00053859  00000+0  54956-3 0  9992,2 46142  53.0457 128.5198 0005129 342.4848  17.5989 15.64557041311739
